#dP2021  7 26  0  0  0.00000000     288   u+U IGb14 FIT  GFZ                    
## 2168  86400.00000000   300.00000000 59421 0.0000000000000                    
+  125   C01C02C03C04C05C06C07C08C09C10C11C12C13C14C16C19C20                    
+        C21C22C23C24C25C26C27C28C29C30C32C33C34C35C36C37C38                    
+        C39C40C41C42C43C44C45C46C59C60E01E02E03E04E05E07E08                    
+        E09E11E12E13E14E15E18E19E21E24E25E26E27E30E31E33E36                    
+        G01G02G03G04G05G06G07G08G09G10G11G12G13G14G15G16G17                    
+        G18G19G20G21G22G23G24G25G26G27G28G29G30G31G32J01J02                    
+        J03J07R01R02R03R04R05R07R08R09R11R12R13R14R15R16R17                    
+        R18R19R20R21R22R24 00 00 00 00 00 00 00 00 00 00 00                    
++        10 10 10 10 10  9  9 10 10 10  8  7 10 10 10  8  9                    
++        10  8  6  6  7  7  7 10  6  8  9  8  5  7  6  6  9                    
++        10 10  7  7  8  5  7  7 10 10  5  5  8  5  6  6  5                    
++         6  5  7  6  7  7  5  5  6  5  5  6  6  6  5  6  5                    
++         6  7  7  6  6  5  5  6  5  7  5  5  5  5  6  6  6                    
++         5  5  5  7  6  7  6  6  5  7  8  5  5  5  5 10 10                    
++         9 10 10  9  7  6  7  7  7 10  6  7  6  8  7  7  6                    
++         7  9  7  7  8  5  0  0  0  0  0  0  0  0  0  0  0                    
%c M  cc GPS ccc cccc cccc cccc cccc ccccc ccccc ccccc ccccc                    
%c cc cc ccc ccc cccc cccc cccc cccc ccccc ccccc ccccc ccccc                    
%f  1.2500000  1.025000000  0.00000000000  0.000000000000000                    
%f  0.0000000  0.000000000  0.00000000000  0.000000000000000                    
%i    0    0    0    0      0      0      0      0         0                    
%i    0    0    0    0      0      0      0      0         0                    
/* PCV:IGS14_2163 OL/AL:FES2004  NONE     YN CLK:CoN ORB:CoN                    
/*     GeoForschungsZentrum Potsdam                                             
/*                                                                              
/*                                                                              
*  2021  7 26 17 40  0.00000000                                                 
PC01 -34359.418455  24488.575396    -72.702988   -235.970384                    
PC02   4538.355345  41918.725820   -442.823520    475.965896                    
PC03 -14714.443260  39516.731133  -1262.562285   -428.491921                    
PC04 -39648.770353  14405.539931   -467.365838    -85.472855                    
PC05  21957.809894  36021.713922   -397.689568    -28.559903                    
PC06 -22485.370117  29701.543545  19760.374370    674.810445                    
PC07 -10430.535973  37331.178778  17522.479411     79.053541                    
PC08  -9756.371493  18770.000864 -36351.474086   -910.210517                    
PC09  -9064.814857  28751.022748  29617.229933    344.276226                    
PC10  -1058.217431  41860.500995   7027.711440    -14.762469                    
PC11 -24008.157568  13836.221578  -3456.728819    480.600049                    
PC12 -24314.939755   1855.709567  13620.425827    799.898237                    
PC13   4320.922717  25644.774022 -33036.245435    350.926401                    
PC14 -13583.483521  16120.114958 -18293.917345    772.474805                    
PC16 -21190.075364  29796.978835  20946.234933   -895.655307                    
PC19   9003.868719 -23929.432561  11181.290173    923.561860                    
PC20  15546.863730  -7545.470020  21917.629528   -834.580329                    
PC21 -13104.195861 -14227.670150 -20090.235058   -937.044113                    
PC22  -2961.778453 -26970.216137  -6454.579035   -948.729392                    
PC23  10063.092892  20522.410471  16024.895392   -965.785043                    
PC24 -23025.911331  -1850.256644  15671.844623   -958.724235                    
PC25  -8222.543927  13998.909057  22695.945744   -879.896788                    
PC26 -23832.289291 -14539.287851    610.539049    873.269489                    
PC27  19060.513167   5798.447574 -19568.426101    570.726398                    
PC28    819.270593  16730.863140 -22322.642414    -45.970032                    
PC29  17146.340261 -18485.635046  11946.119943    424.817502                    
PC30  25742.609910  -9067.782708  -5871.329467    475.380116                    
PC32  13222.430621  14188.938207  20082.980221   -926.389895                    
PC33  -8905.633614  23967.614308 -11200.438270   -947.647829                    
PC34 -25706.464130   9558.412344   5088.987826   -619.245635                    
PC35   -992.346184 -16905.002648  22175.344587   -168.959284                    
PC36   8898.585013 -13551.468275 -22681.429936   -736.434785                    
PC37  23120.433530  15609.987077    318.187876   -862.947339                    
PC38  -8654.187195  21967.681193 -34918.044220    164.349170                    
PC39 -18970.954793  31157.043019  21033.153383     32.641047                    
PC40  -6399.222845  40564.807224   9944.440903    184.302413                    
PC41   2884.955822  27068.147162   6189.285721   -966.982911                    
PC42 -15666.932122   6709.162632 -22059.057977   -923.932558                    
PC43 -17617.468323  18344.008329 -11473.970074   -839.201843                    
PC44 -19120.246329  -5399.103023  19572.322068    309.254979                    
PC45 -10323.975039 -20439.344041 -15948.701564    503.896176                    
PC46  22479.117186    931.595206 -16476.491587    161.019939                    
PC59 -32335.823884  27067.162645    566.704825     -0.660530                    
PC60   7261.135769  41532.561621  -1324.259576     -0.500258                    
PE01   3781.934445 -21371.267210 -20120.278994  -1158.369110                    
PE02  -3684.707070  21456.230394  20055.393890    235.614091                    
PE03 -13671.367458  26144.186161   2509.494984   -456.896438                    
PE04  -1526.782604 -22959.955673 -18609.683080   -821.642463                    
PE05 -21088.077097  14010.511567 -15334.969231   -262.140193                    
PE07  16132.462406   6158.811879  24049.056085   -566.317744                    
PE08   1829.125604  22710.194089  18909.060988   5964.139795                    
PE09 -16147.895507  -5784.333075 -24119.468749   5587.281880                    
PE11 -26854.280846  -7007.421205  10262.238397   5665.496190                    
PE12  -9537.115156 -15398.733241  23400.123174   5091.636246                    
PE13  26649.321202   7164.286698 -10713.700134    419.514831                    
PE14  15383.436116  13319.809008 -24625.393034  -1513.788133                    
PE15   9627.308720  15293.105190 -23445.277106    801.386928                    
PE18 -18522.939412   -878.442441  16441.127623  -1659.496603                    
PE19  15116.247504 -25447.693023   -282.017591    336.609623                    
PE21  16395.835728  -4217.826109 -24275.931519   -678.435824                    
PE24 -19925.797131 -16993.960398  13806.588715  -1028.969811                    
PE25 -16501.162743   3999.927962  24257.126133   -541.228353                    
PE26  27594.779434  -5639.721917   9088.935628   1534.110972                    
PE27  20104.803241  16116.258188 -14556.927924    -84.190638                    
PE30  11132.740180  27024.513701   4651.708319   2752.541658                    
PE31 -11985.189494 -26818.560915  -3620.053986   -483.688102                    
PE33  13025.103283 -14396.611523  22341.119259   -467.133070                    
PE36 -27939.009920   5165.942301  -8300.864740   -239.781058                    
PG01  17771.150293  13720.092749 -14727.691850    616.424836                    
PG02   6823.489906 -14476.135678  21861.350797   -622.242169                    
PG03  12184.735226  22824.801077   6157.454878   -232.930070                    
PG04   8866.225715  12634.111150  21618.041442   -203.062071                    
PG05  -5789.177754 -25283.731224   5111.620918    -49.121659                    
PG06  18553.950582  -8009.648677  17320.257673     45.963871                    
PG07  25919.222332   6768.064925   1925.221687    211.325154                    
PG08   -473.181179  19583.905892 -17801.611802    -30.243499                    
PG09  17365.154442   1439.252298  19991.377738   -356.875289                    
PG10 -14191.934282   4715.662410 -21832.843846   -169.862644                    
PG11   8306.263024 -13327.393774  21402.993070     23.998680                    
PG12 -10246.808985 -23848.043925   5708.633653    -74.078227                    
PG13   9510.230692 -20749.356945 -13595.888466    162.874499                    
PG14  14461.745565  -5074.709064 -21696.477457     38.199965                    
PG15  -2597.324665 -19716.540266 -17815.778942   -132.795456                    
PG16  -1492.269997  24040.892753  10415.437741   -363.455576                    
PG17  21284.554911 -11228.763678 -10816.157248    479.770022                    
PG18 -26122.838898  -4879.868166  -1276.523027    338.078719                    
PG19  20713.324998 -16246.825323  -3147.371327     31.428081                    
PG20   1988.466236 -21376.570392  15770.663436    519.982854                    
PG21  11102.757749  14607.574140 -18689.473983    133.604050                    
PG22   9906.937050  24693.366554  -1685.972992   -553.836102                    
PG23 -16891.249128  -7705.703533 -19039.669652     79.271965                    
PG24 -13793.843511 -14849.045552 -17616.558813    188.209874                    
PG25 -15962.842576 -15540.356161  14396.400542    180.335385                    
PG26  -7983.412437  16935.900693  18675.234005    115.259690                    
PG27  -9979.584412  22150.152707 -10465.408817   -168.880165                    
PG28  11568.652746 -11566.454125 -20421.273281    531.044559                    
PG29 -15791.427590  -4002.084092  20941.082159   -386.414184                    
PG30  24530.268725  -2185.662509 -10181.050966   -455.243032                    
PG31 -17491.615505   9063.494911  17936.904581   -130.811998                    
PG32 -20470.628493  14230.646122  -8789.047269     11.836486                    
PJ01 -23155.710888  31726.634392 -10817.034587   -424.486032                    
PJ02 -25604.556606  21969.106155  30250.377242     -1.059702                    
PJ03 -34835.094883  21683.817383  -5319.269237     -0.363733                    
PJ07 -25389.064565  33667.415996     27.336743     -0.000652                    
PR01  -9719.380098  -6490.471804 -22670.382612     82.881827                    
PR02 -11955.868538  14991.691496 -16747.211937    487.495785                    
PR03  -6496.336930  24623.870680   -813.992003     40.211244                    
PR04   2352.580417  20234.896592  15375.410204     97.542250                    
PR05   9943.587726   4635.643882  23038.130421     76.037325                    
PR07   6284.210692 -24745.644630    261.495951    -41.889153                    
PR08  -2429.704617 -20251.570757 -15276.974999    -60.106523                    
PR09  12982.101117  -2584.500684 -21797.601043      4.908810                    
PR11 -15118.192634 -19033.606144  -7694.546010     45.126670                    
PR12 -19904.845151 -12018.523012  10537.914752    248.517086                    
PR13 -13275.419191   1806.393383  21695.564020    -58.289635                    
PR14   1765.874988  15264.140354  20384.185749     66.934651                    
PR15  15138.929108  19249.642133   7173.280178    102.467669                    
PR16  20056.852198  10651.925040 -11503.766936    -18.516499                    
PR17 -11439.106766  12322.417110 -19198.806176    444.430320                    
PR18   6473.360214   8920.461210 -23000.688274     84.775467                    
PR19  20324.786081   1902.178426 -15296.529323   -153.018368                    
PR20  23979.113904  -7798.068262   3979.399324    -53.109777                    
PR21  10198.910793 -12178.988939  19939.115373   -226.805705                    
PR22  -7341.611606  -8571.724645  22843.748054   -124.652248                    
PR24 -23582.285586   8568.375992  -4643.396429     52.023320                    
EOF                                     
